*******************************************************************************
 Revised: May 05, 2025            MMS-4 Spacecraft / (Earth)            -140485
                      https://www.nasa.gov/mission_pages/mms/index.html
 
 MMS 4
  Magnetospheric Multiscale (MMS) mission: the fourth of four identically
  instrumented space physics spacecraft studying the Earth's magnetosphere.
 
  Octagonal in shape; 2.5-m wide, 1.2-m high, spinning at 3 rpm during science
  operations. Eight deployable booms: four 60-meter wire booms, two 12.5 meter
  booms, two 5-m booms.
 
  Mass: 1250 kg; 318 W power generation; S-band communications.
 
  NOTE: The spacecraft may be maneuvered frequently. Therefore, the JSpOC
   TLE-based trajectory provided here may at times depart from the actual
   trajectory. This can happen because TLEs do not model thruster firings;
   the TLE trajectory solutions must be reinitialized after each event.
 
  Launched: 2015-Mar-13 02:44 UTC (Atlas V, Cape Canaveral, USA)
*******************************************************************************


*******************************************************************************
Ephemeris / WWW_USER Mon May  5 23:47:17 2025 Pasadena, USA      / Horizons
*******************************************************************************
Target body name: MMS-4 (spacecraft) (-140485)    {source: MMS-4}
Center body name: Earth (399)                     {source: DE441}
Center-site name: BODY CENTER
*******************************************************************************
Start time      : A.D. 2015-Nov-12 00:00:00.0000 TDB
Stop  time      : A.D. 2015-Nov-20 00:00:00.0000 TDB
Step-size       : 5 minutes
*******************************************************************************
Center geodetic : 0.0, 0.0, 0.0                   {E-lon(deg),Lat(deg),Alt(km)}
Center cylindric: 0.0, 0.0, 0.0                   {E-lon(deg),Dxy(km),Dz(km)}
Center radii    : 6378.137, 6378.137, 6356.752 km {Equator_a, b, pole_c}
Keplerian GM    : 3.9860043550702260E+05 km^3/s^2
Output units    : KM-S, deg
Calendar mode   : Gregorian
Output type     : GEOMETRIC osculating elements
Output format   : 10
EOP file        : eop.250505.p250731
EOP coverage    : DATA-BASED 1962-JAN-20 TO 2025-MAY-05. PREDICTS-> 2025-JUL-30
Reference frame : ICRF
*******************************************************************************
            JDTDB,            Calendar Date (TDB),                     EC,                     QR,                     IN,                     OM,                      W,                     Tp,                      N,                     MA,                     TA,                      A,                     AD,                     PR,
**************************************************************************************************************************************************************************************************************************************************************************************************************************************************
$$SOE
2457341.208333333, A.D. 2015-Nov-14 17:00:00.0000,  8.187373050941946E-01,  7.632455416349182E+03,  2.886756099582946E+01,  4.838652467646394E+00,  6.341735994923113E+01,  1.336775884368425E+04,  4.186564162053036E-03,  3.040350198980640E+02,  2.087435214262357E+02,  4.210714962786713E+04,  7.658184383938508E+04,  8.598936647455099E+04,
2457341.211805556, A.D. 2015-Nov-14 17:05:00.0000,  8.187373475881567E-01,  7.632429248175884E+03,  2.886755258626990E+01,  4.838037908611105E+00,  6.341830092165426E+01,  1.306781638802479E+04,  4.186584220634043E-03,  3.052904861117524E+02,  2.092784382673558E+02,  4.210701513312524E+04,  7.658160101807459E+04,  8.598895448602232E+04,
2457341.215277778, A.D. 2015-Nov-14 17:10:00.0000,  8.187373720843467E-01,  7.632402750401154E+03,  2.886754595542387E+01,  4.837419540715359E+00,  6.341924828864236E+01,  1.276787391152005E+04,  4.186605174118397E-03,  3.065459530195388E+02,  2.098277246017332E+02,  4.210687463911605E+04,  7.658134652783096E+04,  8.598852412105179E+04,
2457341.218750000, A.D. 2015-Nov-14 17:15:00.0000,  8.187373768922415E-01,  7.632375925460340E+03,  2.886754123664810E+01,  4.836797212074020E+00,  6.342020229826973E+01,  1.246793142278820E+04,  4.186627079087811E-03,  3.078014206851451E+02,  2.103922278407528E+02,  4.210672776661177E+04,  7.658107960776320E+04,  8.598807421807374E+04,
2457341.222222222, A.D. 2015-Nov-14 17:20:00.0000,  8.187373601658591E-01,  7.632348776379317E+03,  2.886753857662793E+01,  4.836170763380827E+00,  6.342116321090398E+01,  1.216798893083984E+04,  4.186649997025790E-03,  3.090568891788895E+02,  2.109728669423398E+02,  4.210657410353882E+04,  7.658079943069832E+04,  8.598760351492128E+04,
2457341.225694444, A.D. 2015-Nov-14 17:25:00.0000,  8.187373198862715E-01,  7.632321306862495E+03,  2.886753813702661E+01,  4.835540027762876E+00,  6.342213129966246E+01,  1.186804644511201E+04,  4.186673994851165E-03,  3.103123585785638E+02,  2.115706404633020E+02,  4.210641320140361E+04,  7.658050509594473E+04,  8.598711063787948E+04,
2457341.229166667, A.D. 2015-Nov-14 17:30:00.0000,  8.187372538417734E-01,  7.632293521395019E+03,  2.886754009637882E+01,  4.834904830716068E+00,  6.342310685080646E+01,  1.156810397550547E+04,  4.186699145521285E-03,  3.115678289704499E+02,  2.121866357488680E+02,  4.210624457125180E+04,  7.658019562110858E+04,  8.598659408931003E+04,
2457341.232638889, A.D. 2015-Nov-14 17:35:00.0000,  8.187371596053530E-01,  7.632265425361492E+03,  2.886754465227130E+01,  4.834264990154145E+00,  6.342409016403993E+01,  1.126816153242584E+04,  4.186725528715165E-03,  3.128233004505066E+02,  2.128220394540032E+02,  4.210606767909218E+04,  7.657986993282287E+04,  8.598605223363612E+04,
2457341.236111111, A.D. 2015-Nov-14 17:40:00.0000,  8.187370345090262E-01,  7.632237025184466E+03,  2.886755202386048E+01,  4.833620316611713E+00,  6.342508155267286E+01,  1.096821912682827E+04,  4.186753231608987E-03,  3.140787731257562E+02,  2.134781496304327E+02,  4.210588194070191E+04,  7.657952685621935E+04,  8.598548328143297E+04,
2457341.239583333, A.D. 2015-Nov-14 17:45:00.0000,  8.187368756145476E-01,  7.632208328486431E+03,  2.886756245478847E+01,  4.832970613658206E+00,  6.342608134358933E+01,  1.066827677026664E+04,  4.186782349757947E-03,  3.153342471159149E+02,  2.141563896618700E+02,  4.210568671571986E+04,  7.657916510295329E+04,  8.598488527133800E+04,
2457341.243055556, A.D. 2015-Nov-14 17:50:00.0000,  8.187366796799064E-01,  7.632179344279532E+03,  2.886757621657102E+01,  4.832315678593318E+00,  6.342708987694954E+01,  1.036833447494758E+04,  4.186812988101227E-03,  3.165897225553118E+02,  2.148583243902337E+02,  4.210548130091539E+04,  7.657878325755124E+04,  8.598425604943598E+04,
2457341.246527778, A.D. 2015-Nov-14 17:55:00.0000,  8.187364431209216E-01,  7.632150083188743E+03,  2.886759361254535E+01,  4.831655303521932E+00,  6.342810750552297E+01,  1.006839225378920E+04,  4.186845262109487E-03,  3.178451995951629E+02,  2.155856788508542E+02,  4.210526492250283E+04,  7.657837976181692E+04,  8.598359324572190E+04,
2457341.250000000, A.D. 2015-Nov-14 18:00:00.0000,  8.187361619671267E-01,  7.632120557714628E+03,  2.886761498248700E+01,  4.830989276934102E+00,  6.342913459352359E+01,  9.768450120485793E+03,  4.186879299097513E-03,  3.191006784062714E+02,  2.163403601290576E+02,  4.210503672735039E+04,  7.657795289698616E+04,  8.598289424717794E+04,
2457341.253472222, A.D. 2015-Nov-14 18:05:00.0000,  8.187358318109783E-01,  7.632090782544356E+03,  2.886764070802589E+01,  4.830317385960344E+00,  6.343017151476888E+01,  9.468508089578023E+03,  4.186915239728575E-03,  3.203561591822525E+02,  2.171244829696886E+02,  4.210479577290554E+04,  7.657750076326673E+04,  8.598215616692010E+04,
2457341.256944444, A.D. 2015-Nov-14 18:10:00.0000,  8.187354477492894E-01,  7.632060774920098E+03,  2.886767121902281E+01,  4.829639419527049E+00,  6.343121864993017E+01,  9.168566176529510E+03,  4.186953239741216E-03,  3.216116421433981E+02,  2.179403999225097E+02,  4.210454101563134E+04,  7.657702125634259E+04,  8.598137580878516E+04,
2457341.260416667, A.D. 2015-Nov-14 18:15:00.0000,  8.187350043155427E-01,  7.632030555077317E+03,  2.886770700110273E+01,  4.828955172715856E+00,  6.343227638255728E+01,  8.868624397809213E+03,  4.186993471934373E-03,  3.228671275413349E+02,  2.187907370000238E+02,  4.210427129771384E+04,  7.657651204035035E+04,  8.598054962662302E+04,
2457341.263888889, A.D. 2015-Nov-14 18:20:00.0000,  8.187344954015644E-01,  7.632000146767354E+03,  2.886774860458718E+01,  4.828264452732516E+00,  6.343334509345792E+01,  8.568682770980609E+03,  4.187036128452100E-03,  3.241226156646591E+02,  2.196784360735643E+02,  4.210398533176410E+04,  7.657597051676085E+04,  8.597967367744875E+04,
2457341.267361111, A.D. 2015-Nov-14 18:25:00.0000,  8.187339141667476E-01,  7.631969577882691E+03,  2.886779665512370E+01,  4.827567087038722E+00,  6.343442515285847E+01,  8.268741314795683E+03,  4.187081423415171E-03,  3.253781068457935E+02,  2.206068055569174E+02,  4.210368168319902E+04,  7.657539378851536E+04,  8.597874356748666E+04,
2457341.270833333, A.D. 2015-Nov-14 18:30:00.0000,  8.187332529327688E-01,  7.631938881206924E+03,  2.886785186638060E+01,  4.826862934396096E+00,  6.343551690957435E+01,  7.968800049294078E+03,  4.187129595952977E-03,  3.266336014693692E+02,  2.215795813495223E+02,  4.210335874994362E+04,  7.657477861868031E+04,  8.597775439001314E+04,
2457341.274305556, A.D. 2015-Nov-14 18:35:00.0000,  8.187325030614208E-01,  7.631908095316734E+03,  2.886791505526296E+01,  4.826151899853143E+00,  6.343662067613596E+01,  7.668858995904576E+03,  4.187180913695475E-03,  3.278890999825265E+02,  2.226010005685357E+02,  4.210301473905568E+04,  7.657412138279463E+04,  8.597670065377597E+04,
